{"type": "FeatureCollection", "features": [ {"type": "Feature", "properties": {"norad_id": 66806, "name": "STARLINK-36069", "group": "last-30-days", "lat": 35.78139146548315, "lon": -4.58455645856113, "alt_km": 340.4844405506956, "timestamp": "2025-12-16T23:36:34.924181+00:00", "meta": {"OBJECT_NAME": "STARLINK-36069", "OBJECT_ID": "2025-278R", "EPOCH": "2025-12-16T06:00:02.999808", "MEAN_MOTION": 15.7707182, "ECCENTRICITY": 0.00017401, "INCLINATION": 42.9985, "RA_OF_ASC_NODE": 230.5426, "ARG_OF_PERICENTER": 272.17, "MEAN_ANOMALY": 0.9133, "EPHEMERIS_TYPE": 0, "CLASSIFICATION_TYPE": "U", "NORAD_CAT_ID": 66806, "ELEMENT_SET_NO": 999, "REV_AT_EPOCH": 331, "BSTAR": -0.0090118531, "MEAN_MOTION_DOT": -0.01351008, "MEAN_MOTION_DDOT": 0}, "tle": {"line1": "1 66806U 25278R   25350.25003472 -.01351008  00000+0 -90119-2 0  9999", "line2": "2 66806  42.9985 230.5426 0001740 272.1700   0.9133 15.77071820  3319"}}, "geometry": {"type": "Point", "coordinates": [-4.58455645856113, 35.78139146548315]}}, {"type": "Feature", "properties": {"norad_id": 66807, "name": "STARLINK-36000", "group": "last-30-days", "lat": 33.13686414458856, "lon": 1.5952937675960386, "alt_km": 341.10214520636237, "timestamp": "2025-12-16T23:36:34.924191+00:00", "meta": {"OBJECT_NAME": "STARLINK-36000", "OBJECT_ID": "2025-278S", "EPOCH": "2025-12-16T06:00:02.999808", "MEAN_MOTION": 15.7684583, "ECCENTRICITY": 0.00014672, "INCLINATION": 42.9987, "RA_OF_ASC_NODE": 230.5274, "ARG_OF_PERICENTER": 271.2606, "MEAN_ANOMALY": 8.0709, "EPHEMERIS_TYPE": 0, "CLASSIFICATION_TYPE": "U", "NORAD_CAT_ID": 66807, "ELEMENT_SET_NO": 999, "REV_AT_EPOCH": 358, "BSTAR": -0.0087934671, "MEAN_MOTION_DOT": -0.01309598, "MEAN_MOTION_DDOT": 0}, "tle": {"line1": "1 66807U 25278S   25350.25003472 -.01309598  00000+0 -87935-2 0  9999", "line2": "2 66807  42.9987 230.5274 0001467 271.2606   8.0709 15.76845830  3580"}}, "geometry": {"type": "Point", "coordinates": [1.5952937675960386, 33.13686414458856]}}, {"type": "Feature", "properties": {"norad_id": 66808, "name": "STARLINK-36071", "group": "last-30-days", "lat": 32.23164171612585, "lon": 3.480902717835367, "alt_km": 341.69453307497406, "timestamp": "2025-12-16T23:36:34.924201+00:00", "meta": {"OBJECT_NAME": "STARLINK-36071", "OBJECT_ID": "2025-278T", "EPOCH": "2025-12-16T06:00:02.999808", "MEAN_MOTION": 15.76863393, "ECCENTRICITY": 0.00017186, "INCLINATION": 42.9982, "RA_OF_ASC_NODE": 230.5218, "ARG_OF_PERICENTER": 264.4982, "MEAN_ANOMALY": 16.8422, "EPHEMERIS_TYPE": 0, "CLASSIFICATION_TYPE": "U", "NORAD_CAT_ID": 66808, "ELEMENT_SET_NO": 999, "REV_AT_EPOCH": 352, "BSTAR": -0.0095162613, "MEAN_MOTION_DOT": -0.01406307, "MEAN_MOTION_DDOT": 0}, "tle": {"line1": "1 66808U 25278T   25350.25003472 -.01406307  00000+0 -95163-2 0  9998", "line2": "2 66808  42.9982 230.5218 0001718 264.4982  16.8422 15.76863393  3521"}}, "geometry": {"type": "Point", "coordinates": [3.480902717835367, 32.23164171612585]}}, {"type": "Feature", "properties": {"norad_id": 66809, "name": "STARLINK-35979", "group": "last-30-days", "lat": 29.30147074102551, "lon": 9.016775034731765, "alt_km": 342.94479374736966, "timestamp": "2025-12-16T23:36:34.924211+00:00", "meta": {"OBJECT_NAME": "STARLINK-35979", "OBJECT_ID": "2025-278U", "EPOCH": "2025-12-16T06:00:02.999808", "MEAN_MOTION": 15.76572761, "ECCENTRICITY": 0.00017949, "INCLINATION": 42.9987, "RA_OF_ASC_NODE": 230.5059, "ARG_OF_PERICENTER": 274.1854, "MEAN_ANOMALY": 13.4292, "EPHEMERIS_TYPE": 0, "CLASSIFICATION_TYPE": "U", "NORAD_CAT_ID": 66809, "ELEMENT_SET_NO": 999, "REV_AT_EPOCH": 352, "BSTAR": -0.0093594188, "MEAN_MOTION_DOT": -0.01369762, "MEAN_MOTION_DDOT": 0}, "tle": {"line1": "1 66809U 25278U   25350.25003472 -.01369762  00000+0 -93594-2 0  9998", "line2": "2 66809  42.9987 230.5059 0001794 274.1854  13.4292 15.76572761  3524"}}, "geometry": {"type": "Point", "coordinates": [9.016775034731765, 29.30147074102551]}}, {"type": "Feature", "properties": {"norad_id": 66810, "name": "STARLINK-36046", "group": "last-30-days", "lat": 31.189565648663628, "lon": 5.542676460816998, "alt_km": 341.7159252654974, "timestamp": "2025-12-16T23:36:34.924223+00:00", "meta": {"OBJECT_NAME": "STARLINK-36046", "OBJECT_ID": "2025-278V", "EPOCH": "2025-12-16T06:00:02.999808", "MEAN_MOTION": 15.76708316, "ECCENTRICITY": 0.00017502, "INCLINATION": 42.9985, "RA_OF_ASC_NODE": 230.5177, "ARG_OF_PERICENTER": 272.7886, "MEAN_ANOMALY": 10.6734, "EPHEMERIS_TYPE": 0, "CLASSIFICATION_TYPE": "U", "NORAD_CAT_ID": 66810, "ELEMENT_SET_NO": 999, "REV_AT_EPOCH": 329, "BSTAR": -0.0084979214, "MEAN_MOTION_DOT": -0.01241045, "MEAN_MOTION_DDOT": 0}, "tle": {"line1": "1 66810U 25278V   25350.25003472 -.01241045  00000+0 -84979-2 0  9990", "line2": "2 66810  42.9985 230.5177 0001750 272.7886  10.6734 15.76708316  3297"}}, "geometry": {"type": "Point", "coordinates": [5.542676460816998, 31.189565648663628]}}, {"type": "Feature", "properties": {"norad_id": 66811, "name": "STARLINK-36045", "group": "last-30-days", "lat": 30.272073381880585, "lon": 7.270068875882212, "alt_km": 342.29233903519344, "timestamp": "2025-12-16T23:36:34.924234+00:00", "meta": {"OBJECT_NAME": "STARLINK-36045", "OBJECT_ID": "2025-278W", "EPOCH": "2025-12-16T06:00:02.999808", "MEAN_MOTION": 15.76626695, "ECCENTRICITY": 0.00015417, "INCLINATION": 42.999, "RA_OF_ASC_NODE": 230.5123, "ARG_OF_PERICENTER": 274.1859, "MEAN_ANOMALY": 11.3817, "EPHEMERIS_TYPE": 0, "CLASSIFICATION_TYPE": "U", "NORAD_CAT_ID": 66811, "ELEMENT_SET_NO": 999, "REV_AT_EPOCH": 352, "BSTAR": -0.009006446, "MEAN_MOTION_DOT": -0.01326278, "MEAN_MOTION_DDOT": 0}, "tle": {"line1": "1 66811U 25278W   25350.25003472 -.01326278  00000+0 -90064-2 0  9995", "line2": "2 66811  42.9990 230.5123 0001541 274.1859  11.3817 15.76626695  3524"}}, "geometry": {"type": "Point", "coordinates": [7.270068875882212, 30.272073381880585]}}, {"type": "Feature", "properties": {"norad_id": 66812, "name": "STARLINK-36054", "group": "last-30-days", "lat": 28.2944987789661, "lon": 10.755902036512547, "alt_km": 343.2169776624942, "timestamp": "2025-12-16T23:36:34.924246+00:00", "meta": {"OBJECT_NAME": "STARLINK-36054", "OBJECT_ID": "2025-278X", "EPOCH": "2025-12-16T06:00:02.999808", "MEAN_MOTION": 15.76539812, "ECCENTRICITY": 0.00016907, "INCLINATION": 42.9989, "RA_OF_ASC_NODE": 230.5011, "ARG_OF_PERICENTER": 270.1783, "MEAN_ANOMALY": 19.4327, "EPHEMERIS_TYPE": 0, "CLASSIFICATION_TYPE": "U", "NORAD_CAT_ID": 66812, "ELEMENT_SET_NO": 999, "REV_AT_EPOCH": 352, "BSTAR": -0.0096393179, "MEAN_MOTION_DOT": -0.01404209, "MEAN_MOTION_DDOT": 0}, "tle": {"line1": "1 66812U 25278X   25350.25003472 -.01404209  00000+0 -96393-2 0  9998", "line2": "2 66812  42.9989 230.5011 0001690 270.1783  19.4327 15.76539812  3525"}}, "geometry": {"type": "Point", "coordinates": [10.755902036512547, 28.2944987789661]}}, {"type": "Feature", "properties": {"norad_id": 66813, "name": "STARLINK-36042", "group": "last-30-days", "lat": 27.23297111343491, "lon": 12.514270991251747, "alt_km": 343.4938770758308, "timestamp": "2025-12-16T23:36:34.924270+00:00", "meta": {"OBJECT_NAME": "STARLINK-36042", "OBJECT_ID": "2025-278Y", "EPOCH": "2025-12-16T06:00:02.999808", "MEAN_MOTION": 15.76514896, "ECCENTRICITY": 0.00015963, "INCLINATION": 42.9989, "RA_OF_ASC_NODE": 230.4956, "ARG_OF_PERICENTER": 274.4321, "MEAN_ANOMALY": 17.144, "EPHEMERIS_TYPE": 0, "CLASSIFICATION_TYPE": "U", "NORAD_CAT_ID": 66813, "ELEMENT_SET_NO": 999, "REV_AT_EPOCH": 352, "BSTAR": -0.0097020984, "MEAN_MOTION_DOT": -0.01410862, "MEAN_MOTION_DDOT": 0}, "tle": {"line1": "1 66813U 25278Y   25350.25003472 -.01410862  00000+0 -97021-2 0  9990", "line2": "2 66813  42.9989 230.4956 0001596 274.4321  17.1440 15.76514896  3529"}}, "geometry": {"type": "Point", "coordinates": [12.514270991251747, 27.23297111343491]}}, {"type": "Feature", "properties": {"norad_id": 66814, "name": "STARLINK-35984", "group": "last-30-days", "lat": 20.46219701934709, "lon": 22.40639379882794, "alt_km": 344.30330029219203, "timestamp": "2025-12-16T23:36:34.924285+00:00", "meta": {"OBJECT_NAME": "STARLINK-35984", "OBJECT_ID": "2025-278Z", "EPOCH": "2025-12-16T06:00:02.999808", "MEAN_MOTION": 15.75819041, "ECCENTRICITY": 0.00015352, "INCLINATION": 42.9988, "RA_OF_ASC_NODE": 230.4646, "ARG_OF_PERICENTER": 267.2987, "MEAN_ANOMALY": 36.5637, "EPHEMERIS_TYPE": 0, "CLASSIFICATION_TYPE": "U", "NORAD_CAT_ID": 66814, "ELEMENT_SET_NO": 999, "REV_AT_EPOCH": 361, "BSTAR": -0.0070435982, "MEAN_MOTION_DOT": -0.01012536, "MEAN_MOTION_DDOT": 0}, "tle": {"line1": "1 66814U 25278Z   25350.25003472 -.01012536  00000+0 -70436-2 0  9998", "line2": "2 66814  42.9988 230.4646 0001535 267.2987  36.5637 15.75819041  3618"}}, "geometry": {"type": "Point", "coordinates": [22.40639379882794, 20.46219701934709]}}, {"type": "Feature", "properties": {"norad_id": 66815, "name": "STARLINK-35985", "group": "last-30-days", "lat": 21.661163437360532, "lon": 20.787702923670054, "alt_km": 344.42658233153634, "timestamp": "2025-12-16T23:36:34.924302+00:00", "meta": {"OBJECT_NAME": "STARLINK-35985", "OBJECT_ID": "2025-278AA", "EPOCH": "2025-12-16T06:00:02.999808", "MEAN_MOTION": 15.75871289, "ECCENTRICITY": 0.00016799, "INCLINATION": 42.9986, "RA_OF_ASC_NODE": 230.469, "ARG_OF_PERICENTER": 273.5029, "MEAN_ANOMALY": 28.3987, "EPHEMERIS_TYPE": 0, "CLASSIFICATION_TYPE": "U", "NORAD_CAT_ID": 66815, "ELEMENT_SET_NO": 999, "REV_AT_EPOCH": 361, "BSTAR": -0.0073949438, "MEAN_MOTION_DOT": -0.01060326, "MEAN_MOTION_DDOT": 0}, "tle": {"line1": "1 66815U 25278AA  25350.25003472 -.01060326  00000+0 -73949-2 0  9991", "line2": "2 66815  42.9986 230.4690 0001679 273.5029  28.3987 15.75871289  3611"}}, "geometry": {"type": "Point", "coordinates": [20.787702923670054, 21.661163437360532]}}]}